STARLINK-1559           
1 46077U 20055BC  26068.23360559  .00042685  00000+0  14779-2 0  9995
2 46077  53.0254  76.0659 0004229  33.9710 326.1559 15.29461733309518
STARLINK-2731           
1 48651U 21044P   26068.50167346  .00008212  00000+0  28894-3 0  9995
2 48651  53.1608 114.7581 0001669  81.5472 278.5718 15.30216557263795
